start=new Date('2023-02-13T00:00:00.000Z').valueOf();
sats=[{"RCS_SIZE":"LARGE","OBJECT_ID":"2020-055AF","MEAN_ELEMENT_THEORY":"SGP4","SITE":"AFETR","MEAN_ANOMALY":"268.5177","RA_OF_ASC_NODE":"109.5061","ECCENTRICITY":"0.00013110","TLE_LINE2":"2 46056  53.0516 109.5061 0001311  91.5962 268.5177 15.06433595140061","APOAPSIS":"548.018","OBJECT_NAME":"STARLINK-1561","COUNTRY_CODE":"US","FILE":"3787692","SEMIMAJOR_AXIS":"6925.246","TIME_SYSTEM":"UTC","GP_ID":"225233159","INCLINATION":"53.0516","EPHEMERIS_TYPE":"0","ARG_OF_PERICENTER":"91.5962","CLASSIFICATION_TYPE":"U","PERIAPSIS":"546.203","MEAN_MOTION":"15.06433595","TLE_LINE1":"1 46056U 20055AF  23043.57304973  .00043925  00000-0  29468-2 0  9997","MEAN_MOTION_DDOT":"0.0000000000000","EPOCH":"2023-02-12T13:45:11.496672","NORAD_CAT_ID":"46056","MEAN_MOTION_DOT":"0.00043925","CENTER_NAME":"EARTH","LAUNCH_DATE":"2020-08-07","REF_FRAME":"TEME","DECAY_DATE":null,"OBJECT_TYPE":"PAYLOAD","REV_AT_EPOCH":"14006","BSTAR":"0.00294680000000","PERIOD":"95.590","ELEMENT_SET_NO":"999"},{"MEAN_ANOMALY":"276.1435","SITE":"AFETR","MEAN_ELEMENT_THEORY":"SGP4","OBJECT_ID":"2020-055AH","RCS_SIZE":"LARGE","SEMIMAJOR_AXIS":"6925.258","APOAPSIS":"548.179","TLE_LINE2":"2 46058  53.0514 109.1556 0001525  83.9727 276.1435 15.06429534139537","FILE":"3787873","COUNTRY_CODE":"US","OBJECT_NAME":"STARLINK-1564","RA_OF_ASC_NODE":"109.1556","ECCENTRICITY":"0.00015250","MEAN_MOTION_DDOT":"0.0000000000000","EPOCH":"2023-02-12T15:38:01.112064","TLE_LINE1":"1 46058U 20055AH  23043.65140176  .00042173  00000-0  28310-2 0  9990","CLASSIFICATION_TYPE":"U","EPHEMERIS_TYPE":"0","ARG_OF_PERICENTER":"83.9727","MEAN_MOTION":"15.06429534","PERIAPSIS":"546.067","TIME_SYSTEM":"UTC","GP_ID":"225270248","INCLINATION":"53.0514","ELEMENT_SET_NO":"999","BSTAR":"0.00283100000000","REV_AT_EPOCH":"13953","PERIOD":"95.590","OBJECT_TYPE":"PAYLOAD","DECAY_DATE":null,"REF_FRAME":"TEME","NORAD_CAT_ID":"46058","MEAN_MOTION_DOT":"0.00042173","CENTER_NAME":"EARTH","LAUNCH_DATE":"2020-08-07"},{"INCLINATION":"53.0511","GP_ID":"225232164","TIME_SYSTEM":"UTC","MEAN_MOTION":"15.06418112","PERIAPSIS":"546.121","CLASSIFICATION_TYPE":"U","ARG_OF_PERICENTER":"96.6970","EPHEMERIS_TYPE":"0","TLE_LINE1":"1 46059U 20055AJ  23043.45973273  .00039764  00000-0  26721-2 0  9997","EPOCH":"2023-02-12T11:02:00.907872","MEAN_MOTION_DDOT":"0.0000000000000","LAUNCH_DATE":"2020-08-07","CENTER_NAME":"EARTH","MEAN_MOTION_DOT":"0.00039764","NORAD_CAT_ID":"46059","OBJECT_TYPE":"PAYLOAD","REF_FRAME":"TEME","DECAY_DATE":null,"PERIOD":"95.591","BSTAR":"0.00267210000000","REV_AT_EPOCH":"13999","ELEMENT_SET_NO":"999","RCS_SIZE":"LARGE","OBJECT_ID":"2020-055AJ","MEAN_ELEMENT_THEORY":"SGP4","MEAN_ANOMALY":"263.4190","SITE":"AFETR","ECCENTRICITY":"0.00014980","RA_OF_ASC_NODE":"110.0194","FILE":"3787692","COUNTRY_CODE":"US","OBJECT_NAME":"STARLINK-1570","APOAPSIS":"548.195","TLE_LINE2":"2 46059  53.0511 110.0194 0001498  96.6970 263.4190 15.06418112139991","SEMIMAJOR_AXIS":"6925.293"},{"TLE_LINE1":"1 46060U 20055AK  23043.45604731  .00032120  00000-0  21648-2 0  9991","EPOCH":"2023-02-12T10:56:42.487584","MEAN_MOTION_DDOT":"0.0000000000000","INCLINATION":"53.0522","TIME_SYSTEM":"UTC","GP_ID":"225232412","MEAN_MOTION":"15.06410301","PERIAPSIS":"546.304","CLASSIFICATION_TYPE":"U","EPHEMERIS_TYPE":"0","ARG_OF_PERICENTER":"105.2001","PERIOD":"95.591","BSTAR":"0.00216480000000","REV_AT_EPOCH":"14000","ELEMENT_SET_NO":"999","LAUNCH_DATE":"2020-08-07","CENTER_NAME":"EARTH","NORAD_CAT_ID":"46060","MEAN_MOTION_DOT":"0.00032120","OBJECT_TYPE":"PAYLOAD","DECAY_DATE":null,"REF_FRAME":"TEME","MEAN_ELEMENT_THEORY":"SGP4","SITE":"AFETR","MEAN_ANOMALY":"254.9128","RCS_SIZE":"LARGE","OBJECT_ID":"2020-055AK","FILE":"3787692","COUNTRY_CODE":"US","OBJECT_NAME":"STARLINK-1572","APOAPSIS":"548.060","TLE_LINE2":"2 46060  53.0522 110.0317 0001268 105.2001 254.9128 15.06410301140001","SEMIMAJOR_AXIS":"6925.317","ECCENTRICITY":"0.00012680","RA_OF_ASC_NODE":"110.0317"},{"MEAN_MOTION":"15.06424254","PERIAPSIS":"546.118","CLASSIFICATION_TYPE":"U","EPHEMERIS_TYPE":"0","ARG_OF_PERICENTER":"89.1055","INCLINATION":"53.0515","GP_ID":"225270269","TIME_SYSTEM":"UTC","EPOCH":"2023-02-12T15:32:42.252000","MEAN_MOTION_DDOT":"0.0000000000000","TLE_LINE1":"1 46061U 20055AL  23043.64771125  .00038619  00000-0  25957-2 0  9991","OBJECT_TYPE":"PAYLOAD","REF_FRAME":"TEME","DECAY_DATE":null,"CENTER_NAME":"EARTH","LAUNCH_DATE":"2020-08-07","MEAN_MOTION_DOT":"0.00038619","NORAD_CAT_ID":"46061","ELEMENT_SET_NO":"999","PERIOD":"95.591","BSTAR":"0.00259570000000","REV_AT_EPOCH":"13953","OBJECT_ID":"2020-055AL","RCS_SIZE":"LARGE","MEAN_ANOMALY":"271.0103","SITE":"AFETR","MEAN_ELEMENT_THEORY":"SGP4","ECCENTRICITY":"0.00014750","RA_OF_ASC_NODE":"109.1805","SEMIMAJOR_AXIS":"6925.274","FILE":"3787875","COUNTRY_CODE":"US","OBJECT_NAME":"STARLINK-1573","APOAPSIS":"548.161","TLE_LINE2":"2 46061  53.0515 109.1805 0001475  89.1055 271.0103 15.06424254139535"},{"MEAN_ELEMENT_THEORY":"SGP4","SITE":"AFETR","MEAN_ANOMALY":"252.9212","RCS_SIZE":"LARGE","OBJECT_ID":"2020-055AM","OBJECT_NAME":"STARLINK-1574","COUNTRY_CODE":"US","FILE":"3787552","TLE_LINE2":"2 46062  53.0549 109.6126 0001172 107.1905 252.9212 15.06406145139519","APOAPSIS":"548.006","SEMIMAJOR_AXIS":"6925.330","ECCENTRICITY":"0.00011720","RA_OF_ASC_NODE":"109.6126","TLE_LINE1":"1 46062U 20055AM  23043.54818754  .00001977  00000-0  15158-3 0  9991","EPOCH":"2023-02-12T13:09:23.403456","MEAN_MOTION_DDOT":"0.0000000000000","INCLINATION":"53.0549","GP_ID":"225209251","TIME_SYSTEM":"UTC","PERIAPSIS":"546.383","MEAN_MOTION":"15.06406145","EPHEMERIS_TYPE":"0","ARG_OF_PERICENTER":"107.1905","CLASSIFICATION_TYPE":"U","PERIOD":"95.592","REV_AT_EPOCH":"13951","BSTAR":"0.00015158000000","ELEMENT_SET_NO":"999","LAUNCH_DATE":"2020-08-07","CENTER_NAME":"EARTH","MEAN_MOTION_DOT":"0.00001977","NORAD_CAT_ID":"46062","REF_FRAME":"TEME","DECAY_DATE":null,"OBJECT_TYPE":"PAYLOAD"},{"BSTAR":"0.00242290000000","REV_AT_EPOCH":"13952","PERIOD":"95.590","ELEMENT_SET_NO":"999","MEAN_MOTION_DOT":"0.00036025","NORAD_CAT_ID":"46063","LAUNCH_DATE":"2020-08-07","CENTER_NAME":"EARTH","OBJECT_TYPE":"PAYLOAD","DECAY_DATE":null,"REF_FRAME":"TEME","TLE_LINE1":"1 46063U 20055AN  23043.67719815  .00036025  00000-0  24229-2 0  9994","MEAN_MOTION_DDOT":"0.0000000000000","EPOCH":"2023-02-12T16:15:09.920160","GP_ID":"225270279","TIME_SYSTEM":"UTC","INCLINATION":"53.0527","CLASSIFICATION_TYPE":"U","EPHEMERIS_TYPE":"0","ARG_OF_PERICENTER":"80.2794","MEAN_MOTION":"15.06433318","PERIAPSIS":"546.219","APOAPSIS":"548.003","TLE_LINE2":"2 46063  53.0527 109.0404 0001288  80.2794 279.8340 15.06433318139527","FILE":"3787875","COUNTRY_CODE":"US","OBJECT_NAME":"STARLINK-1577","SEMIMAJOR_AXIS":"6925.246","RA_OF_ASC_NODE":"109.0404","ECCENTRICITY":"0.00012880","MEAN_ELEMENT_THEORY":"SGP4","MEAN_ANOMALY":"279.8340","SITE":"AFETR","RCS_SIZE":"LARGE","OBJECT_ID":"2020-055AN"},{"ELEMENT_SET_NO":"999","PERIOD":"95.591","BSTAR":"0.00251430000000","REV_AT_EPOCH":"13950","OBJECT_TYPE":"PAYLOAD","DECAY_DATE":null,"REF_FRAME":"TEME","CENTER_NAME":"EARTH","LAUNCH_DATE":"2020-08-07","MEAN_MOTION_DOT":"0.00037385","NORAD_CAT_ID":"46064","EPOCH":"2023-02-12T10:40:47.021088","MEAN_MOTION_DDOT":"0.0000000000000","TLE_LINE1":"1 46064U 20055AP  23043.44498867  .00037385  00000-0  25143-2 0  9997","MEAN_MOTION":"15.06416783","PERIAPSIS":"545.988","CLASSIFICATION_TYPE":"U","ARG_OF_PERICENTER":"89.9760","EPHEMERIS_TYPE":"0","INCLINATION":"53.0523","GP_ID":"225270784","TIME_SYSTEM":"UTC","SEMIMAJOR_AXIS":"6925.297","FILE":"3787876","COUNTRY_CODE":"US","OBJECT_NAME":"STARLINK-1583","APOAPSIS":"548.336","TLE_LINE2":"2 46064  53.0523 110.0896 0001695  89.9760 270.1423 15.06416783139503","ECCENTRICITY":"0.00016950","RA_OF_ASC_NODE":"110.0896","MEAN_ANOMALY":"270.1423","SITE":"AFETR","MEAN_ELEMENT_THEORY":"SGP4","OBJECT_ID":"2020-055AP","RCS_SIZE":"LARGE"},{"TLE_LINE1":"1 46065U 20055AQ  23043.63755702  .00018190  00000-0  12363-2 0  9996","EPOCH":"2023-02-12T15:18:04.926528","MEAN_MOTION_DDOT":"0.0000000000000","INCLINATION":"53.0512","GP_ID":"225268778","TIME_SYSTEM":"UTC","MEAN_MOTION":"15.06418526","PERIAPSIS":"545.636","CLASSIFICATION_TYPE":"U","EPHEMERIS_TYPE":"0","ARG_OF_PERICENTER":"88.3304","PERIOD":"95.591","BSTAR":"0.00123630000000","REV_AT_EPOCH":"13983","ELEMENT_SET_NO":"999","LAUNCH_DATE":"2020-08-07","CENTER_NAME":"EARTH","MEAN_MOTION_DOT":"0.00018190","NORAD_CAT_ID":"46065","OBJECT_TYPE":"PAYLOAD","DECAY_DATE":null,"REF_FRAME":"TEME","MEAN_ELEMENT_THEORY":"SGP4","SITE":"AFETR","MEAN_ANOMALY":"271.7937","RCS_SIZE":"LARGE","OBJECT_ID":"2020-055AQ","FILE":"3787797","OBJECT_NAME":"STARLINK-1515","COUNTRY_CODE":"US","APOAPSIS":"548.678","TLE_LINE2":"2 46065  53.0512  89.2175 0002196  88.3304 271.7937 15.06418526139833","SEMIMAJOR_AXIS":"6925.292","ECCENTRICITY":"0.00021960","RA_OF_ASC_NODE":"89.2175"},{"FILE":"3787534","COUNTRY_CODE":"US","OBJECT_NAME":"STARLINK-1525","APOAPSIS":"548.557","TLE_LINE2":"2 46066  53.0547  89.8013 0001971  94.4855 265.6359 15.06406975139787","SEMIMAJOR_AXIS":"6925.327","ECCENTRICITY":"0.00019710","RA_OF_ASC_NODE":"89.8013","MEAN_ELEMENT_THEORY":"SGP4","SITE":"AFETR","MEAN_ANOMALY":"265.6359","RCS_SIZE":"LARGE","OBJECT_ID":"2020-055AR","PERIOD":"95.592","BSTAR":"0.00015943000000","REV_AT_EPOCH":"13978","ELEMENT_SET_NO":"999","LAUNCH_DATE":"2020-08-07","CENTER_NAME":"EARTH","NORAD_CAT_ID":"46066","MEAN_MOTION_DOT":"0.00002094","OBJECT_TYPE":"PAYLOAD","REF_FRAME":"TEME","DECAY_DATE":null,"TLE_LINE1":"1 46066U 20055AR  23043.50948918  .00002094  00000-0  15943-3 0  9990","EPOCH":"2023-02-12T12:13:39.865152","MEAN_MOTION_DDOT":"0.0000000000000","INCLINATION":"53.0547","GP_ID":"225208729","TIME_SYSTEM":"UTC","MEAN_MOTION":"15.06406975","PERIAPSIS":"545.827","CLASSIFICATION_TYPE":"U","EPHEMERIS_TYPE":"0","ARG_OF_PERICENTER":"94.4855"}];
